start=new Date('2022-07-10T00:00:00.000Z').valueOf();
sats=[{"BSTAR":"-0.00005863400000","DECAY_DATE":null,"RA_OF_ASC_NODE":"153.0556","MEAN_MOTION_DOT":"-0.00001155","CLASSIFICATION_TYPE":"U","SEMIMAJOR_AXIS":"6925.366","LAUNCH_DATE":"2021-03-11","ARG_OF_PERICENTER":"70.1253","GP_ID":"207784253","EPOCH":"2022-07-09T14:16:00.477408","INCLINATION":"53.0539","TLE_LINE2":"2 47829  53.0539 153.0556 0001819  70.1253 289.9932 15.06394465 74612","EPHEMERIS_TYPE":"0","PERIOD":"95.592","REF_FRAME":"TEME","APOAPSIS":"548.490","PERIAPSIS":"545.971","CENTER_NAME":"EARTH","REV_AT_EPOCH":"7461","TIME_SYSTEM":"UTC","OBJECT_TYPE":"PAYLOAD","OBJECT_NAME":"STARLINK-2416","OBJECT_ID":"2021-018AU","SITE":"AFETR","ECCENTRICITY":"0.00018190","MEAN_ELEMENT_THEORY":"SGP4","MEAN_ANOMALY":"289.9932","FILE":"3510681","MEAN_MOTION":"15.06394465","COUNTRY_CODE":"US","RCS_SIZE":"LARGE","MEAN_MOTION_DDOT":"0.0000000000000","TLE_LINE1":"1 47829U 21018AU  22190.59444997 -.00001155  00000-0 -58634-4 0  9991","ELEMENT_SET_NO":"999","NORAD_CAT_ID":"47829"},{"CLASSIFICATION_TYPE":"U","MEAN_MOTION_DOT":"-0.00000839","LAUNCH_DATE":"2021-03-11","SEMIMAJOR_AXIS":"6925.378","DECAY_DATE":null,"BSTAR":"-0.00003739700000","RA_OF_ASC_NODE":"152.4872","REF_FRAME":"TEME","APOAPSIS":"548.834","REV_AT_EPOCH":"7463","CENTER_NAME":"EARTH","PERIAPSIS":"545.651","GP_ID":"207784503","ARG_OF_PERICENTER":"60.2693","PERIOD":"95.593","EPHEMERIS_TYPE":"0","INCLINATION":"53.0547","TLE_LINE2":"2 47830  53.0547 152.4872 0002298  60.2693 299.8525 15.06390529 74634","EPOCH":"2022-07-09T17:21:46.531008","ECCENTRICITY":"0.00022980","MEAN_ELEMENT_THEORY":"SGP4","OBJECT_NAME":"STARLINK-2419","OBJECT_TYPE":"PAYLOAD","TIME_SYSTEM":"UTC","SITE":"AFETR","OBJECT_ID":"2021-018AV","ELEMENT_SET_NO":"999","NORAD_CAT_ID":"47830","MEAN_MOTION":"15.06390529","COUNTRY_CODE":"US","FILE":"3510681","MEAN_ANOMALY":"299.8525","TLE_LINE1":"1 47830U 21018AV  22190.72345522 -.00000839  00000-0 -37397-4 0  9993","MEAN_MOTION_DDOT":"0.0000000000000","RCS_SIZE":"LARGE"},{"EPOCH":"2022-07-09T12:35:50.006112","INCLINATION":"53.0555","TLE_LINE2":"2 47831  53.0555 128.3803 0002265  59.3007 300.8205 15.06385770 75015","PERIOD":"95.593","EPHEMERIS_TYPE":"0","ARG_OF_PERICENTER":"59.3007","GP_ID":"207732257","PERIAPSIS":"545.689","CENTER_NAME":"EARTH","REV_AT_EPOCH":"7501","REF_FRAME":"TEME","APOAPSIS":"548.826","RA_OF_ASC_NODE":"128.3803","BSTAR":"-0.00007108200000","DECAY_DATE":null,"LAUNCH_DATE":"2021-03-11","SEMIMAJOR_AXIS":"6925.392","MEAN_MOTION_DOT":"-0.00001340","CLASSIFICATION_TYPE":"U","RCS_SIZE":"LARGE","MEAN_MOTION_DDOT":"0.0000000000000","TLE_LINE1":"1 47831U 21018AW  22190.52488433 -.00001340  00000-0 -71082-4 0  9998","MEAN_ANOMALY":"300.8205","FILE":"3510582","COUNTRY_CODE":"US","MEAN_MOTION":"15.06385770","NORAD_CAT_ID":"47831","ELEMENT_SET_NO":"999","OBJECT_ID":"2021-018AW","SITE":"AFETR","TIME_SYSTEM":"UTC","OBJECT_TYPE":"PAYLOAD","OBJECT_NAME":"STARLINK-2420","MEAN_ELEMENT_THEORY":"SGP4","ECCENTRICITY":"0.00022650"},{"ELEMENT_SET_NO":"999","NORAD_CAT_ID":"47832","MEAN_MOTION":"15.06394834","COUNTRY_CODE":"US","FILE":"3510582","MEAN_ANOMALY":"289.4336","TLE_LINE1":"1 47832U 21018AX  22190.28206047 -.00000832  00000-0 -36936-4 0  9995","MEAN_MOTION_DDOT":"0.0000000000000","RCS_SIZE":"LARGE","ECCENTRICITY":"0.00016320","MEAN_ELEMENT_THEORY":"SGP4","OBJECT_NAME":"STARLINK-2422","OBJECT_TYPE":"PAYLOAD","TIME_SYSTEM":"UTC","OBJECT_ID":"2021-018AX","SITE":"AFETR","APOAPSIS":"548.360","REF_FRAME":"TEME","REV_AT_EPOCH":"7471","CENTER_NAME":"EARTH","PERIAPSIS":"546.099","GP_ID":"207731006","ARG_OF_PERICENTER":"70.6829","PERIOD":"95.592","EPHEMERIS_TYPE":"0","INCLINATION":"53.0537","TLE_LINE2":"2 47832  53.0537 144.4590 0001632  70.6829 289.4336 15.06394834 74717","EPOCH":"2022-07-09T06:46:10.024608","CLASSIFICATION_TYPE":"U","MEAN_MOTION_DOT":"-0.00000832","LAUNCH_DATE":"2021-03-11","SEMIMAJOR_AXIS":"6925.364","DECAY_DATE":null,"BSTAR":"-0.00003693600000","RA_OF_ASC_NODE":"144.4590"},{"NORAD_CAT_ID":"47833","ELEMENT_SET_NO":"999","RCS_SIZE":"LARGE","MEAN_MOTION_DDOT":"0.0000000000000","TLE_LINE1":"1 47833U 21018AY  22190.57324013 -.00003453  00000-0 -21304-3 0  9996","MEAN_ANOMALY":"301.9522","FILE":"3510681","MEAN_MOTION":"15.06395970","COUNTRY_CODE":"US","MEAN_ELEMENT_THEORY":"SGP4","ECCENTRICITY":"0.00019880","OBJECT_ID":"2021-018AY","SITE":"AFETR","TIME_SYSTEM":"UTC","OBJECT_TYPE":"PAYLOAD","OBJECT_NAME":"STARLINK-2423","PERIAPSIS":"545.849","CENTER_NAME":"EARTH","REV_AT_EPOCH":"7481","REF_FRAME":"TEME","APOAPSIS":"548.603","EPOCH":"2022-07-09T13:45:27.947232","INCLINATION":"53.0527","TLE_LINE2":"2 47833  53.0527 143.1533 0001988  58.1660 301.9522 15.06395970 74818","EPHEMERIS_TYPE":"0","PERIOD":"95.592","ARG_OF_PERICENTER":"58.1660","GP_ID":"207783754","SEMIMAJOR_AXIS":"6925.361","LAUNCH_DATE":"2021-03-11","MEAN_MOTION_DOT":"-0.00003453","CLASSIFICATION_TYPE":"U","RA_OF_ASC_NODE":"143.1533","BSTAR":"-0.00021304000000","DECAY_DATE":null},{"MEAN_ELEMENT_THEORY":"SGP4","ECCENTRICITY":"0.00019970","SITE":"AFETR","OBJECT_ID":"2021-018AZ","OBJECT_NAME":"STARLINK-2424","OBJECT_TYPE":"PAYLOAD","TIME_SYSTEM":"UTC","NORAD_CAT_ID":"47834","ELEMENT_SET_NO":"999","TLE_LINE1":"1 47834U 21018AZ  22190.58432508 -.00000538  00000-0 -17203-4 0  9992","MEAN_MOTION_DDOT":"0.0000000000000","RCS_SIZE":"LARGE","MEAN_MOTION":"15.06382904","COUNTRY_CODE":"US","FILE":"3510681","MEAN_ANOMALY":"296.8435","LAUNCH_DATE":"2021-03-11","SEMIMAJOR_AXIS":"6925.401","CLASSIFICATION_TYPE":"U","MEAN_MOTION_DOT":"-0.00000538","RA_OF_ASC_NODE":"143.0998","DECAY_DATE":null,"BSTAR":"-0.00001720300000","REV_AT_EPOCH":"7481","CENTER_NAME":"EARTH","PERIAPSIS":"545.883","APOAPSIS":"548.649","REF_FRAME":"TEME","PERIOD":"95.593","EPHEMERIS_TYPE":"0","TLE_LINE2":"2 47834  53.0541 143.0998 0001997  63.2758 296.8435 15.06382904 74812","INCLINATION":"53.0541","EPOCH":"2022-07-09T14:01:25.686912","GP_ID":"207784005","ARG_OF_PERICENTER":"63.2758"},{"CENTER_NAME":"EARTH","REV_AT_EPOCH":"7468","PERIAPSIS":"545.964","APOAPSIS":"548.461","REF_FRAME":"TEME","EPHEMERIS_TYPE":"0","PERIOD":"95.592","EPOCH":"2022-07-09T14:40:34.390560","TLE_LINE2":"2 47835  53.0552 148.0962 0001803  70.6270 289.4914 15.06400433 74681","INCLINATION":"53.0552","GP_ID":"207782753","ARG_OF_PERICENTER":"70.6270","SEMIMAJOR_AXIS":"6925.347","LAUNCH_DATE":"2021-03-11","CLASSIFICATION_TYPE":"U","MEAN_MOTION_DOT":"0.00000751","RA_OF_ASC_NODE":"148.0962","DECAY_DATE":null,"BSTAR":"0.00006932800000","NORAD_CAT_ID":"47835","ELEMENT_SET_NO":"999","TLE_LINE1":"1 47835U 21018BA  22190.61150915  .00000751  00000-0  69328-4 0  9996","RCS_SIZE":"LARGE","MEAN_MOTION_DDOT":"0.0000000000000","MEAN_MOTION":"15.06400433","COUNTRY_CODE":"US","MEAN_ANOMALY":"289.4914","FILE":"3510681","MEAN_ELEMENT_THEORY":"SGP4","ECCENTRICITY":"0.00018030","SITE":"AFETR","OBJECT_ID":"2021-018BA","OBJECT_NAME":"STARLINK-2425","TIME_SYSTEM":"UTC","OBJECT_TYPE":"PAYLOAD"},{"OBJECT_TYPE":"PAYLOAD","TIME_SYSTEM":"UTC","OBJECT_NAME":"STARLINK-2426","SITE":"AFETR","OBJECT_ID":"2021-018BB","ECCENTRICITY":"0.00020460","MEAN_ELEMENT_THEORY":"SGP4","FILE":"3510681","MEAN_ANOMALY":"295.7184","COUNTRY_CODE":"US","MEAN_MOTION":"15.06395906","MEAN_MOTION_DDOT":"0.0000000000000","RCS_SIZE":"LARGE","TLE_LINE1":"1 47836U 21018BB  22190.60274712 -.00000087  00000-0  13043-4 0  9994","ELEMENT_SET_NO":"999","NORAD_CAT_ID":"47836","BSTAR":"0.00001304300000","DECAY_DATE":null,"RA_OF_ASC_NODE":"143.1033","MEAN_MOTION_DOT":"-0.00000087","CLASSIFICATION_TYPE":"U","LAUNCH_DATE":"2021-03-11","SEMIMAJOR_AXIS":"6925.361","ARG_OF_PERICENTER":"64.4016","GP_ID":"207783003","TLE_LINE2":"2 47836  53.0550 143.1033 0002046  64.4016 295.7184 15.06395906 74760","INCLINATION":"53.0550","EPOCH":"2022-07-09T14:27:57.351168","EPHEMERIS_TYPE":"0","PERIOD":"95.592","APOAPSIS":"548.643","REF_FRAME":"TEME","PERIAPSIS":"545.809","REV_AT_EPOCH":"7476","CENTER_NAME":"EARTH"},{"RA_OF_ASC_NODE":"123.2730","BSTAR":"0.00002903300000","DECAY_DATE":null,"SEMIMAJOR_AXIS":"6925.337","LAUNCH_DATE":"2021-03-11","MEAN_MOTION_DOT":"0.00000151","CLASSIFICATION_TYPE":"U","TLE_LINE2":"2 47837  53.0535 123.2730 0002226  60.8000 299.3211 15.06403612 75047","INCLINATION":"53.0535","EPOCH":"2022-07-09T13:05:39.362208","PERIOD":"95.592","EPHEMERIS_TYPE":"0","ARG_OF_PERICENTER":"60.8000","GP_ID":"207730757","PERIAPSIS":"545.661","REV_AT_EPOCH":"7504","CENTER_NAME":"EARTH","REF_FRAME":"TEME","APOAPSIS":"548.744","SITE":"AFETR","OBJECT_ID":"2021-018BC","OBJECT_TYPE":"PAYLOAD","TIME_SYSTEM":"UTC","OBJECT_NAME":"STARLINK-2427","MEAN_ELEMENT_THEORY":"SGP4","ECCENTRICITY":"0.00022260","MEAN_MOTION_DDOT":"0.0000000000000","RCS_SIZE":"LARGE","TLE_LINE1":"1 47837U 21018BC  22190.54559447  .00000151  00000-0  29033-4 0  9996","FILE":"3510582","MEAN_ANOMALY":"299.3211","MEAN_MOTION":"15.06403612","COUNTRY_CODE":"US","NORAD_CAT_ID":"47837","ELEMENT_SET_NO":"999"},{"ECCENTRICITY":"0.00025480","MEAN_ELEMENT_THEORY":"SGP4","TIME_SYSTEM":"UTC","OBJECT_TYPE":"PAYLOAD","OBJECT_NAME":"STARLINK-2429","SITE":"AFETR","OBJECT_ID":"2021-018BD","ELEMENT_SET_NO":"999","NORAD_CAT_ID":"47838","MEAN_ANOMALY":"302.8775","FILE":"3510681","MEAN_MOTION":"15.06399093","COUNTRY_CODE":"US","RCS_SIZE":"LARGE","MEAN_MOTION_DDOT":"0.0000000000000","TLE_LINE1":"1 47838U 21018BD  22190.69119804 -.00001171  00000-0 -59678-4 0  9995","MEAN_MOTION_DOT":"-0.00001171","CLASSIFICATION_TYPE":"U","LAUNCH_DATE":"2021-03-11","SEMIMAJOR_AXIS":"6925.351","BSTAR":"-0.00005967800000","DECAY_DATE":null,"RA_OF_ASC_NODE":"142.6270","APOAPSIS":"548.981","REF_FRAME":"TEME","PERIAPSIS":"545.452","CENTER_NAME":"EARTH","REV_AT_EPOCH":"7477","ARG_OF_PERICENTER":"57.2459","GP_ID":"207784504","EPOCH":"2022-07-09T16:35:19.510656","TLE_LINE2":"2 47838  53.0549 142.6270 0002548  57.2459 302.8775 15.06399093 74773","INCLINATION":"53.0549","EPHEMERIS_TYPE":"0","PERIOD":"95.592"}];
